{
    "links": {
        "self": "http://www.neowsapp.com/rest/v1/neo/3607960?api_key=iIulBulltgU6a56xZRHN4H3l9WmuAYTsLGpBGhQ2"
    },
    "id": "3607960",
    "neo_reference_id": "3607960",
    "name": "(2012 QY17)",
    "designation": "2012 QY17",
    "nasa_jpl_url": "http://ssd.jpl.nasa.gov/sbdb.cgi?sstr=3607960",
    "absolute_magnitude_h": 25.6,
    "estimated_diameter": {
        "kilometers": {
            "estimated_diameter_min": 0.0201629919,
            "estimated_diameter_max": 0.0450858206
        },
        "meters": {
            "estimated_diameter_min": 20.1629919443,
            "estimated_diameter_max": 45.0858206172
        },
        "miles": {
            "estimated_diameter_min": 0.0125286985,
            "estimated_diameter_max": 0.0280150214
        },
        "feet": {
            "estimated_diameter_min": 66.1515504905,
            "estimated_diameter_max": 147.9193637137
        }
    },
    "is_potentially_hazardous_asteroid": false,
    "close_approach_data": [
        {
            "close_approach_date": "2012-08-24",
            "close_approach_date_full": "2012-Aug-24 23:01",
            "epoch_date_close_approach": 1345849260000,
            "relative_velocity": {
                "kilometers_per_second": "10.666252255",
                "kilometers_per_hour": "38398.5081180662",
                "miles_per_hour": "23859.3396692507"
            },
            "miss_distance": {
                "astronomical": "0.0503644089",
                "lunar": "19.5917550621",
                "kilometers": "7534408.295249043",
                "miles": "4681664.2230130734"
            },
            "orbiting_body": "Earth"
        },
        {
            "close_approach_date": "2148-08-09",
            "close_approach_date_full": "2148-Aug-09 18:27",
            "epoch_date_close_approach": 5636284020000,
            "relative_velocity": {
                "kilometers_per_second": "13.2239471321",
                "kilometers_per_hour": "47606.2096757076",
                "miles_per_hour": "29580.6473398862"
            },
            "miss_distance": {
                "astronomical": "0.2680888421",
                "lunar": "104.2865595769",
                "kilometers": "40105519.748926327",
                "miles": "24920414.3970122326"
            },
            "orbiting_body": "Earth"
        }
    ],
    "orbital_data": {
        "orbit_id": "4",
        "orbit_determination_date": "2017-04-06 08:49:10",
        "first_observation_date": "2012-08-25",
        "last_observation_date": "2012-08-27",
        "data_arc_in_days": 2,
        "observations_used": 22,
        "orbit_uncertainty": "8",
        "minimum_orbit_intersection": ".0503648",
        "jupiter_tisserand_invariant": "4.413",
        "epoch_osculation": "2456165.5",
        "eccentricity": ".2989786297374634",
        "semi_major_axis": "1.513642653178735",
        "inclination": "18.61251040699531",
        "ascending_node_longitude": "152.2387566258645",
        "orbital_period": "680.1950432486582",
        "perihelion_distance": "1.061095846819178",
        "perihelion_argument": "180.8018060437605",
        "aphelion_distance": "1.966189459538292",
        "perihelion_time": "2456165.454138652246",
        "mean_anomaly": ".02427257498464956",
        "mean_motion": ".5292599579682546",
        "equinox": "J2000",
        "orbit_class": {
            "orbit_class_type": "AMO",
            "orbit_class_description": "Near-Earth asteroid orbits similar to that of 1221 Amor",
            "orbit_class_range": "1.017 AU < q (perihelion) < 1.3 AU"
        }
    },
    "is_sentry_object": false
}